{
    "links": {
        "self": "http://www.neowsapp.com/rest/v1/neo/3426812?api_key=iIulBulltgU6a56xZRHN4H3l9WmuAYTsLGpBGhQ2"
    },
    "id": "3426812",
    "neo_reference_id": "3426812",
    "name": "(2008 RX24)",
    "designation": "2008 RX24",
    "nasa_jpl_url": "http://ssd.jpl.nasa.gov/sbdb.cgi?sstr=3426812",
    "absolute_magnitude_h": 21.4,
    "estimated_diameter": {
        "kilometers": {
            "estimated_diameter_min": 0.1394938229,
            "estimated_diameter_max": 0.3119176705
        },
        "meters": {
            "estimated_diameter_min": 139.4938229344,
            "estimated_diameter_max": 311.9176705226
        },
        "miles": {
            "estimated_diameter_min": 0.0866774163,
            "estimated_diameter_max": 0.1938165949
        },
        "feet": {
            "estimated_diameter_min": 457.6569140361,
            "estimated_diameter_max": 1023.3519701574
        }
    },
    "is_potentially_hazardous_asteroid": false,
    "close_approach_data": [
        {
            "close_approach_date": "2008-09-11",
            "close_approach_date_full": "2008-Sep-11 02:59",
            "epoch_date_close_approach": 1221101940000,
            "relative_velocity": {
                "kilometers_per_second": "2.2815347121",
                "kilometers_per_hour": "8213.5249634644",
                "miles_per_hour": "5103.5649974371"
            },
            "miss_distance": {
                "astronomical": "0.2797148152",
                "lunar": "108.8090631128",
                "kilometers": "41844740.561363624",
                "miles": "26001116.0970570512"
            },
            "orbiting_body": "Earth"
        }
    ],
    "orbital_data": {
        "orbit_id": "24",
        "orbit_determination_date": "2017-04-06 09:03:00",
        "first_observation_date": "2008-09-06",
        "last_observation_date": "2008-11-19",
        "data_arc_in_days": 74,
        "observations_used": 90,
        "orbit_uncertainty": "5",
        "minimum_orbit_intersection": ".277776",
        "jupiter_tisserand_invariant": "3.465",
        "epoch_osculation": "2459000.5",
        "eccentricity": ".4388147887789101",
        "semi_major_axis": "2.288024189555464",
        "inclination": "2.022302956423431",
        "ascending_node_longitude": "7.322505937498569",
        "orbital_period": "1264.123032451678",
        "perihelion_distance": "1.284005338094646",
        "perihelion_argument": "340.2428687459736",
        "aphelion_distance": "3.292043041016282",
        "perihelion_time": "2458506.566291609881",
        "mean_anomaly": "140.6636304027946",
        "mean_motion": ".2847824070587537",
        "equinox": "J2000",
        "orbit_class": {
            "orbit_class_type": "AMO",
            "orbit_class_description": "Near-Earth asteroid orbits similar to that of 1221 Amor",
            "orbit_class_range": "1.017 AU < q (perihelion) < 1.3 AU"
        }
    },
    "is_sentry_object": false
}